NORAD_CAT_ID,OBJECT_NAME,OBJECT_TYPE,EPOCH,MEAN_MOTION,ECCENTRICITY,INCLINATION,RA_OF_ASC_NODE,ARG_OF_PERICENTER,MEAN_ANOMALY,BSTAR,MEAN_MOTION_DOT,MEAN_MOTION_DDOT,TLE_LINE0,TLE_LINE1,TLE_LINE2,SEMIMAJOR_AXIS,PERIOD,APOGEE,PERIGEE,DECAYED
49150.0,STARLINK-3104,PAYLOAD,2022-02-16 20:00:01,14.98314953,0.00037,69.9985,70.7354,288.4856,132.5673,0.0021988,0.00026232,0.0,0 STARLINK-3104,1 49150U 21082W   22047.83334491  .00026232  00000-0  21988-2 0  9997,2 49150  69.9985  70.7354 0003700 288.4856 132.5673 14.98314953 25218,6950.239000000001,96.108,574.6759999999998,569.533,0.0
49150.0,STARLINK-3104,PAYLOAD,2022-02-16 22:00:00,14.98301392,0.0003718,69.9984,70.5254,287.4057,223.0205,0.0054123,0.00065043,0.0,0 STARLINK-3104,1 49150U 21082W   22047.91667824  .00065043  00000-0  54123-2 0  9995,2 49150  69.9984  70.5254 0003718 287.4057 223.0205 14.98301392  3581,6950.281,96.109,574.73,569.562,0.0
49150.0,STARLINK-3104,PAYLOAD,2022-02-17 14:00:01,14.98347522,0.000381,69.9982,68.844,292.8942,212.5026,-0.00095962,-0.0001153,0.0,0 STARLINK-3104,1 49150U 21082W   22048.58334491 -.00011530  00000-0 -95962-3 0  9991,2 49150  69.9982  68.8440 0003810 292.8942 212.5026 14.98347522  3581,6950.139,96.106,574.6519999999998,569.356,0.0
49150.0,STARLINK-3104,PAYLOAD,2022-02-17 20:00:01,14.98318092,0.0003687,69.9984,68.2135,288.752,124.8434,0.0028217,0.00033728,0.0,0 STARLINK-3104,1 49150U 21082W   22048.83335648  .00033728  00000-0  28217-2 0  9993,2 49150  69.9984  68.2135 0003687 288.7520 124.8434 14.98318092 25364,6950.23,96.108,574.6569999999998,569.5319999999998,0.0
49150.0,STARLINK-3104,PAYLOAD,2022-02-17 22:00:00,14.98308775,0.00037,69.9983,68.0035,287.7125,215.1942,0.0053825,0.00064693,0.0,0 STARLINK-3104,1 49150U 21082W   22048.91667824  .00064693  00000-0  53825-2 0  9994,2 49150  69.9983  68.0035 0003700 287.7125 215.1942 14.98308775  3581,6950.259,96.108,574.695,569.552,0.0
49150.0,STARLINK-3104,PAYLOAD,2022-02-18 12:00:00,14.98331886,0.0003845,69.9986,66.532,292.7995,115.7238,0.0024519,0.00029288,0.0,0 STARLINK-3104,1 49150U 21082W   22049.50001157  .00029288  00000-0  24519-2 0  9990,2 49150  69.9986  66.5320 0003845 292.7995 115.7238 14.98331886 25468,6950.187,96.107,574.724,569.38,0.0
49150.0,STARLINK-3104,PAYLOAD,2022-02-18 14:00:01,14.98356073,0.000382,69.9983,66.3219,292.7436,205.1471,-0.0015905,-0.00019033,0.0,0 STARLINK-3104,1 49150U 21082W   22049.58334491 -.00019033  00000-0 -15905-2 0  9996,2 49150  69.9983  66.3219 0003820 292.7436 205.1471 14.98356073  3580,6950.111999999999,96.105,574.632,569.322,0.0
49150.0,STARLINK-3104,PAYLOAD,2022-02-18 22:00:00,14.98314871,0.0003708,69.9985,65.4813,287.3941,208.0117,0.0051284999999999,0.00061619,0.0,0 STARLINK-3104,1 49150U 21082W   22049.91667824  .00061619  00000-0  51285-2 0  9998,2 49150  69.9985  65.4813 0003708 287.3941 208.0117 14.98314871  3576,6950.24,96.108,574.682,569.528,0.0
49150.0,STARLINK-3104,PAYLOAD,2022-02-19 04:00:00,14.98383812,0.0003726,69.999,64.8507,288.4664,115.048,-0.0071316,-0.00084294,0.0,0 STARLINK-3104,1 49150U 21082W   22050.16667824 -.00084294  00000-0 -71316-2 0  9990,2 49150  69.9990  64.8507 0003726 288.4664 115.0480 14.98383812 25563,6950.026,96.104,574.481,569.302,0.0
49150.0,STARLINK-3104,PAYLOAD,2022-02-19 12:00:02,14.98312823,0.0003785,69.9988,64.01,292.6882,108.4043,0.0021826,0.00026036,0.0,0 STARLINK-3104,1 49150U 21082W   22050.50002315  .00026036  00000-0  21826-2 0  9995,2 49150  69.9988  64.0100 0003785 292.6882 108.4043 14.98312823 25616,6950.246,96.108,574.742,569.48,0.0
49150.0,STARLINK-3104,PAYLOAD,2022-02-19 14:00:01,14.983371900000002,0.0003757,69.9986,63.7999,292.519,197.8723,-0.0019645,-0.00023461,0.0,0 STARLINK-3104,1 49150U 21082W   22050.58334491 -.00023461  00000-0 -19645-2 0  9993,2 49150  69.9986  63.7999 0003757 292.5190 197.8723 14.98337190  3578,6950.170999999999,96.107,574.6469999999998,569.424,0.0
49150.0,STARLINK-3104,PAYLOAD,2022-02-19 22:00:00,14.982935500000002,0.0003671,69.9988,62.9594,286.9936,200.8858,0.0053363,0.00064106,0.0,0 STARLINK-3104,1 49150U 21082W   22050.91667824  .00064106  00000-0  53363-2 0  9993,2 49150  69.9988  62.9594 0003671 286.9936 200.8858 14.98293550  3566,6950.306,96.109,574.722,569.619,0.0
49150.0,STARLINK-3104,PAYLOAD,2022-02-20 04:00:00,14.98352156,0.0003725,69.9993,62.3289,288.1246,107.8461,-0.0035356,-0.00042054,0.0,0 STARLINK-3104,1 49150U 21082W   22051.16667824 -.00042054  00000-0 -35356-2 0  9993,2 49150  69.9993  62.3289 0003725 288.1246 107.8461 14.98352156 25710,6950.124,96.106,574.578,569.4,0.0
49150.0,STARLINK-3104,PAYLOAD,2022-02-20 14:00:01,14.98344988,0.0003817,69.999,61.2781,291.7505,191.0766,-0.0023033,-0.00027481,0.0,0 STARLINK-3104,1 49150U 21082W   22051.58334491 -.00027481  00000-0 -23033-2 0  9996,2 49150  69.9990  61.2781 0003817 291.7505 191.0766 14.98344988  3579,6950.147,96.106,574.664,569.359,0.0
49150.0,STARLINK-3104,PAYLOAD,2022-02-20 20:00:01,14.98299406,0.0003741,69.9993,60.6476,287.2764,103.6806,0.0046291,0.00055539,0.0,0 STARLINK-3104,1 49150U 21082W   22051.83334491  .00055539  00000-0  46291-2 0  9998,2 49150  69.9993  60.6476 0003741 287.2764 103.6806 14.98299406 25818,6950.288000000001,96.109,574.753,569.552,0.0
49150.0,STARLINK-3104,PAYLOAD,2022-02-20 22:00:00,14.98302149,0.0003748,69.9993,60.4376,286.5268,193.7966,0.005349,0.00064275,0.0,0 STARLINK-3104,1 49150U 21082W   22051.91667824  .00064275  00000-0  53490-2 0  9992,2 49150  69.9993  60.4376 0003748 286.5268 193.7966 14.98302149  3589,6950.279,96.109,574.749,569.539,0.0
49150.0,STARLINK-3104,PAYLOAD,2022-02-21 12:00:00,14.98329953,0.0003898,69.9995,58.9666,291.8147,94.107,0.0015393,0.00018323,0.0,0 STARLINK-3104,1 49150U 21082W   22052.50001157  .00018323  00000-0  15393-2 0  9992,2 49150  69.9995  58.9666 0003898 291.8147  94.1070 14.98329953 25919,6950.193,96.107,574.7669999999998,569.349,0.0
49150.0,STARLINK-3104,PAYLOAD,2022-02-21 22:00:00,14.98321546,0.0003741,69.9997,57.9161,286.9294,185.8579,0.0019313,0.00023023,0.0,0 STARLINK-3104,1 49150U 21082W   22052.91667824  .00023023  00000-0  19313-2 0  9995,2 49150  69.9997  57.9161 0003741 286.9294 185.8579 14.98321546  3586,6950.219,96.108,574.684,569.484,0.0
49150.0,STARLINK-3104,PAYLOAD,2022-02-22 04:00:00,14.98347741,0.000376,70.0001,57.2857,288.9006,91.9972,-0.0050928,-0.00060371,0.0,0 STARLINK-3104,1 49150U 21082W   22053.16667824 -.00060371  00000-0 -50928-2 0  9999,2 49150  70.0001  57.2857 0003760 288.9006  91.9972 14.98347741 26016,6950.138000000001,96.106,574.616,569.39,0.0
49150.0,STARLINK-3104,PAYLOAD,2022-02-22 12:00:02,14.98312164,0.0003797,69.9997,56.4452,292.9699,85.4672,0.00087797,0.00010394,0.0,0 STARLINK-3104,1 49150U 21082W   22053.50002315  .00010394  00000-0  87797-3 0  9998,2 49150  69.9997  56.4452 0003797 292.9699  85.4672 14.98312164 26063,6950.248000000001,96.108,574.752,569.474,0.0
49150.0,STARLINK-3104,PAYLOAD,2022-02-22 14:00:01,14.98334913,0.0003731,69.9997,56.2352,292.6895,175.0451,-0.0032904,-0.00039143,0.0,0 STARLINK-3104,1 49150U 21082W   22053.58334491 -.00039143  00000-0 -32904-2 0  9993,2 49150  69.9997  56.2352 0003731 292.6895 175.0451 14.98334913  3571,6950.178000000001,96.107,574.636,569.45,0.0
49150.0,STARLINK-3104,PAYLOAD,2022-02-22 22:00:00,14.98291243,0.0003638,69.9999,55.3949,287.7511,177.4604,0.004756,0.00057064,0.0,0 STARLINK-3104,1 49150U 21082W   22053.91667824  .00057064  00000-0  47560-2 0  9993,2 49150  69.9999  55.3949 0003638 287.7511 177.4604 14.98291243  3575,6950.313,96.109,574.706,569.649,0.0
49150.0,STARLINK-3104,PAYLOAD,2022-02-23 12:00:00,14.98316893,0.0003687,69.9997,53.9335,289.8902,80.8848,0.0017902,0.00021326,0.0,0 STARLINK-3104,1 49150U 21082W   22054.50001157  .00021326  00000-0  17902-2 0  9999,2 49150  69.9997  53.9335 0003687 289.8902  80.8848 14.98316893 26219,6950.233,96.108,574.661,569.536,0.0
49150.0,STARLINK-3104,PAYLOAD,2022-02-23 14:00:01,14.98330477,0.0003634,69.9997,53.7243,288.9606,171.1785,-2.6044e-05,-4.04e-06,0.0,0 STARLINK-3104,1 49150U 21082W   22054.58334491 -.00000404  00000-0 -26044-4 0  9992,2 49150  69.9997  53.7243 0003634 288.9606 171.1785 14.98330477  3581,6950.191,96.107,574.582,569.531,0.0
49150.0,STARLINK-3104,PAYLOAD,2022-02-23 22:00:00,14.98298398,0.00036,69.9999,52.8735,288.2693,169.3536,0.0043126999999999,0.00051706,0.0,0 STARLINK-3104,1 49150U 21082W   22054.91667824  .00051706  00000-0  43127-2 0  9996,2 49150  69.9999  52.8735 0003600 288.2693 169.3536 14.98298398  3589,6950.291,96.109,574.658,569.654,0.0
49150.0,STARLINK-3104,PAYLOAD,2022-02-24 04:00:00,14.98342691,0.0003699,70.0002,52.2431,290.4759,75.2455,-0.0029086,-0.0003464,0.0,0 STARLINK-3104,1 49150U 21082W   22055.16667824 -.00034640  00000-0 -29086-2 0  9992,2 49150  70.0002  52.2431 0003699 290.4759  75.2455 14.98342691 26317,6950.154,96.106,574.59,569.448,0.0
49150.0,STARLINK-3104,PAYLOAD,2022-02-24 14:00:01,14.98350286,0.0003697,69.9996,51.1924,293.2047,159.3643,-0.0040037,-0.0004757,0.0,0 STARLINK-3104,1 49150U 21082W   22055.58334491 -.00047570  00000-0 -40037-2 0  9994,2 49150  69.9996  51.1924 0003697 293.2047 159.3643 14.98350286  3575,6950.13,96.106,574.565,569.4259999999998,0.0
49150.0,STARLINK-3104,PAYLOAD,2022-02-24 20:00:01,14.9829199,0.0003618,69.9998,50.562,288.3453,72.3531,0.0058328,0.00070137,0.0,0 STARLINK-3104,1 49150U 21082W   22055.83334491  .00070137  00000-0  58328-2 0  9997,2 49150  69.9998  50.5620 0003618 288.3453  72.3531 14.98291990 26416,6950.31,96.109,574.69,569.661,0.0
49150.0,STARLINK-3104,PAYLOAD,2022-02-24 22:00:00,14.98309306,0.00036,69.9998,50.3519,287.9322,162.1272,0.0041046999999999,0.00049204,0.0,0 STARLINK-3104,1 49150U 21082W   22055.91667824  .00049204  00000-0  41047-2 0  9996,2 49150  69.9998  50.3519 0003600 287.9322 162.1272 14.98309306  3564,6950.257,96.108,574.624,569.62,0.0
